ONEWEB-0372             
1 49298U 21090V   24284.84953521  .00000101  00000+0  21606-3 0  9990
2 49298  87.9282  36.6469 0001859 102.3102 257.8240 13.20771851148743
ONEWEB-0373             
1 49299U 21090W   24284.80074430  .00000009  00000+0 -95485-5 0  9996
2 49299  87.9280  36.6711 0001503 107.3399 252.7899 13.20770651149923
ONEWEB-0374             
1 49300U 21090X   24284.84822301  .00000708  00000+0  18744-2 0  9996
2 49300  87.8991  51.8615 0001763 103.8782 256.2544 13.14495572146855
ONEWEB-0375             
1 49301U 21090Y   24284.86386638  .00000063  00000+0  12398-3 0  9991
2 49301  87.9280  36.6350 0001120 110.8652 249.2602 13.20773717149437
ONEWEB-0376             
1 49302U 21090Z   24284.92063222  .00000176  00000+0  40817-3 0  9992
2 49302  87.9130  67.1226 0001955 100.0307 260.1046 13.19727471146713
ONEWEB-0377             
1 49303U 21090AA  24284.77404101 -.00004291  00000+0 -10586-1 0  9993
2 49303  87.9281  36.6453 0001498  89.2074 270.9231 13.20792784149411
ONEWEB-0378             
1 49304U 21090AB  24284.79614599  .00000053  00000+0  99591-4 0  9996
2 49304  87.9279  36.6447 0001630 101.8075 258.3241 13.20769764148683
